[
  {
    "OBJECT_NAME": "STARLINK-11583 [DTC]",
    "OBJECT_ID": "25031L",
    "EPOCH": "2025-11-11T03:11:34.101312",
    "MEAN_MOTION": 15.71101184,
    "ECCENTRICITY": 0.0001354,
    "INCLINATION": 42.9969,
    "RA_OF_ASC_NODE": 356.3337,
    "ARG_OF_PERICENTER": 227.9004,
    "MEAN_ANOMALY": 132.1748,
    "EPHEMERIS_TYPE": 0,
    "CLASSIFICATION_TYPE": "U",
    "NORAD_CAT_ID": 62991,
    "ELEMENT_SET_NO": 999,
    "REV_AT_EPOCH": 4410,
    "BSTAR": 0.0032562999999999997,
    "MEAN_MOTION_DOT": 0.00445431,
    "MEAN_MOTION_DDOT": 0.0,
    "TLE_LINE1": "1 62991U 25031L   25315.13303358  .00445431  00000+0  32563-2 0  9991",
    "TLE_LINE2": "2 62991  42.9969 356.3337 0001354 227.9004 132.1748 15.71101184 44109",
    "COMMENT": "Grouped by shell and plane from TLE"
  },
  {
    "OBJECT_NAME": "STARLINK-11570 [DTC]",
    "OBJECT_ID": "25031M",
    "EPOCH": "2025-11-11T03:19:12.791136",
    "MEAN_MOTION": 15.70919888,
    "ECCENTRICITY": 0.0001336,
    "INCLINATION": 42.9999,
    "RA_OF_ASC_NODE": 356.378,
    "ARG_OF_PERICENTER": 230.3415,
    "MEAN_ANOMALY": 129.7335,
    "EPHEMERIS_TYPE": 0,
    "CLASSIFICATION_TYPE": "U",
    "NORAD_CAT_ID": 62992,
    "ELEMENT_SET_NO": 999,
    "REV_AT_EPOCH": 4408,
    "BSTAR": 0.0020106,
    "MEAN_MOTION_DOT": 0.00266891,
    "MEAN_MOTION_DDOT": 0.0,
    "TLE_LINE1": "1 62992U 25031M   25315.13834249  .00266891  00000+0  20106-2 0  9991",
    "TLE_LINE2": "2 62992  42.9999 356.3780 0001336 230.3415 129.7335 15.70919888 44087",
    "COMMENT": "Grouped by shell and plane from TLE"
  },
  {
    "OBJECT_NAME": "STARLINK-11576 [DTC]",
    "OBJECT_ID": "25031N",
    "EPOCH": "2025-11-11T04:27:50.343840",
    "MEAN_MOTION": 15.70842854,
    "ECCENTRICITY": 0.0003654,
    "INCLINATION": 42.999,
    "RA_OF_ASC_NODE": 355.8651,
    "ARG_OF_PERICENTER": 291.4888,
    "MEAN_ANOMALY": 68.559,
    "EPHEMERIS_TYPE": 0,
    "CLASSIFICATION_TYPE": "U",
    "NORAD_CAT_ID": 62993,
    "ELEMENT_SET_NO": 999,
    "REV_AT_EPOCH": 4409,
    "BSTAR": 0.0025326,
    "MEAN_MOTION_DOT": 0.00338161,
    "MEAN_MOTION_DDOT": 0.0,
    "TLE_LINE1": "1 62993U 25031N   25315.18599935  .00338161  00000+0  25326-2 0  9996",
    "TLE_LINE2": "2 62993  42.9990 355.8651 0003654 291.4888  68.5590 15.70842854 44099",
    "COMMENT": "Grouped by shell and plane from TLE"
  }
]